{"type": "Feature", "properties": {"source": "OSM way/1385212852", "license": "ODbL 1.0"}, "geometry": {"type": "Polygon", "coordinates": [[[-75.5299198, 10.4103859], [-75.5302303, 10.4108425], [-75.5302887, 10.4110265], [-75.5302536, 10.4111989], [-75.5301952, 10.4113426], [-75.5300549, 10.4116013], [-75.5300491, 10.4117392], [-75.5301017, 10.4119059], [-75.530201, 10.4120611], [-75.5301952, 10.4122106], [-75.5300783, 10.4123141], [-75.5298562, 10.4122451], [-75.529675, 10.4121819], [-75.5294529, 10.4120497], [-75.5291373, 10.4120439], [-75.5288393, 10.4120037], [-75.5285587, 10.4120037], [-75.5281204, 10.4119059], [-75.5277756, 10.4118887], [-75.5272734, 10.4117525], [-75.5269511, 10.411581], [-75.5268402, 10.4114934], [-75.5267539, 10.4112576], [-75.5267023, 10.411224], [-75.5266371, 10.4111467], [-75.5265947, 10.4110773], [-75.5265988, 10.4109433], [-75.5265486, 10.4109327], [-75.5265058, 10.4108639], [-75.5265012, 10.4107806], [-75.5265473, 10.4106758], [-75.5265781, 10.4106067], [-75.5265953, 10.4105379], [-75.526592, 10.4104823], [-75.5265998, 10.4104083], [-75.526641, 10.4103698], [-75.5266913, 10.4103522], [-75.5267058, 10.4103072], [-75.5267529, 10.4102577], [-75.526812, 10.4102369], [-75.5268758, 10.4102427], [-75.5269415, 10.4102284], [-75.5269877, 10.4101383], [-75.5270172, 10.4101101], [-75.5270871, 10.4100624], [-75.5271444, 10.4100266], [-75.5272165, 10.4100105], [-75.527213, 10.4099581], [-75.5271371, 10.4099149], [-75.5270585, 10.409898], [-75.5270331, 10.4098409], [-75.5270343, 10.4097643], [-75.5269959, 10.409731], [-75.5269453, 10.4097395], [-75.5269002, 10.409671], [-75.5268798, 10.4096233], [-75.5268853, 10.4095756], [-75.5269053, 10.4095307], [-75.5268753, 10.4095164], [-75.5268199, 10.4095178], [-75.5267767, 10.4094648], [-75.5267743, 10.4093912], [-75.5267332, 10.4093205], [-75.5267478, 10.4092542], [-75.5267798, 10.4091911], [-75.5267761, 10.4091289], [-75.526721, 10.4090705], [-75.5267271, 10.4090055], [-75.5266702, 10.4089826], [-75.5266372, 10.4089169], [-75.5265953, 10.4088543], [-75.5265871, 10.4087765], [-75.5265806, 10.408694], [-75.5265741, 10.4086325], [-75.5266026, 10.4086011], [-75.5266443, 10.4085892], [-75.5266654, 10.4085043], [-75.5266754, 10.4084668], [-75.5266776, 10.4084236], [-75.5267272, 10.4083612], [-75.526744, 10.4083489], [-75.5267498, 10.4083195], [-75.5267275, 10.408294], [-75.5266873, 10.4083039], [-75.5266674, 10.4082675], [-75.5266721, 10.4082302], [-75.5267139, 10.4082224], [-75.5266845, 10.4081841], [-75.5266517, 10.4081775], [-75.5266222, 10.4081375], [-75.526629, 10.4080996], [-75.5266099, 10.4080696], [-75.526632, 10.4080283], [-75.5266312, 10.4079997], [-75.5266053, 10.4079865], [-75.5266008, 10.4079681], [-75.5266032, 10.4079336], [-75.5266266, 10.4079293], [-75.5266346, 10.40789], [-75.5266667, 10.4078782], [-75.5266957, 10.4077823], [-75.5267261, 10.407724], [-75.5266426, 10.4077119], [-75.5265454, 10.4076779], [-75.5264439, 10.4076456], [-75.5264007, 10.4075814], [-75.5262951, 10.4075734], [-75.5262164, 10.407492], [-75.5261395, 10.4073555], [-75.5261133, 10.4072399], [-75.5260725, 10.4072337], [-75.5260569, 10.4071672], [-75.5260709, 10.4071317], [-75.5260014, 10.4069633], [-75.5259325, 10.4069171], [-75.5259077, 10.4068812], [-75.5258567, 10.4068451], [-75.5257981, 10.406853], [-75.525762, 10.4068536], [-75.5257308, 10.4068167], [-75.5256992, 10.4067743], [-75.5256636, 10.4067153], [-75.5256536, 10.4066891], [-75.5256645, 10.4066676], [-75.5256565, 10.4066346], [-75.5256495, 10.4066056], [-75.5256807, 10.4065835], [-75.525668, 10.4065072], [-75.5256285, 10.4064618], [-75.5256284, 10.4064224], [-75.525639, 10.4063915], [-75.5255493, 10.406331], [-75.5254542, 10.4062807], [-75.5253077, 10.4061289], [-75.5253409, 10.4060665], [-75.5254453, 10.405823], [-75.5257967, 10.4053179], [-75.5263064, 10.4045721], [-75.5272101, 10.4046269], [-75.5272556, 10.4042713], [-75.5272905, 10.4042731], [-75.5272549, 10.4046279], [-75.5273888, 10.4046345], [-75.5274288, 10.4045995], [-75.5274726, 10.4045662], [-75.5275301, 10.4045673], [-75.5276139, 10.4045852], [-75.5276871, 10.4045844], [-75.5277814, 10.4045891], [-75.5278536, 10.4045982], [-75.5278905, 10.4045903], [-75.5279436, 10.4046098], [-75.5279959, 10.4046217], [-75.5280363, 10.4046263], [-75.5280687, 10.4046243], [-75.5281114, 10.4046174], [-75.5281386, 10.4046389], [-75.5281558, 10.4046467], [-75.5281755, 10.4046339], [-75.5282006, 10.4046376], [-75.5282163, 10.4046554], [-75.5282275, 10.4046892], [-75.528256, 10.4047046], [-75.5282872, 10.4047111], [-75.5283569, 10.4047123], [-75.5284357, 10.4047075], [-75.5284785, 10.4046931], [-75.5285279, 10.4047035], [-75.5286486, 10.4047354], [-75.5287019, 10.4047417], [-75.5287643, 10.4047501], [-75.5288875, 10.4047914], [-75.5289171, 10.4047966], [-75.529113, 10.4048176], [-75.5307307, 10.4049917], [-75.5307379, 10.4048996], [-75.531215, 10.4049557], [-75.5321881, 10.4033924], [-75.5325077, 10.4035821], [-75.5316223, 10.405004], [-75.5328482, 10.4051456], [-75.5338079, 10.403574], [-75.534122, 10.4037549], [-75.5332398, 10.4051912], [-75.539568, 10.4059235], [-75.5395213, 10.4064655], [-75.5388029, 10.4063885], [-75.5388095, 10.4066427], [-75.5387625, 10.4069442], [-75.5386227, 10.4070532], [-75.5384893, 10.4071205], [-75.5384006, 10.4071642], [-75.5383351, 10.4071893], [-75.5382755, 10.4072226], [-75.5381383, 10.4072932], [-75.5380444, 10.4073374], [-75.5379777, 10.4073699], [-75.5378948, 10.4074078], [-75.5377847, 10.4074701], [-75.53776, 10.4074847], [-75.5374808, 10.4075501], [-75.5374448, 10.4076389], [-75.5374508, 10.4076593], [-75.5374893, 10.4076519], [-75.537526, 10.407778], [-75.5389777, 10.4072631], [-75.5389232, 10.4071188], [-75.5389532, 10.4071053], [-75.5390548, 10.4073914], [-75.539028, 10.4074004], [-75.5389843, 10.407293], [-75.5375416, 10.4078098], [-75.5375949, 10.4079462], [-75.5373378, 10.4080373], [-75.5374137, 10.4082157], [-75.537627, 10.4081317], [-75.5376596, 10.4081985], [-75.539196, 10.4076528], [-75.5391527, 10.407541], [-75.5391919, 10.4075291], [-75.5392989, 10.4078165], [-75.5392569, 10.4078323], [-75.5392064, 10.4076823], [-75.537681, 10.4082349], [-75.5377007, 10.4082949], [-75.5373392, 10.4084252], [-75.5373422, 10.4084504], [-75.5374247, 10.4084248], [-75.5376348, 10.4083596], [-75.5377637, 10.4083315], [-75.5380094, 10.4082778], [-75.5384027, 10.4082627], [-75.5385409, 10.4082669], [-75.5386579, 10.408394], [-75.5390701, 10.4084035], [-75.5390841, 10.4084058], [-75.5393865, 10.4085893], [-75.5395416, 10.4085081], [-75.5397212, 10.4083372], [-75.5392762, 10.4090511], [-75.5392159, 10.409018], [-75.5393477, 10.4088122], [-75.5393554, 10.4086312], [-75.5390527, 10.4084561], [-75.5386659, 10.4084405], [-75.5385406, 10.4088301], [-75.5385227, 10.4091615], [-75.5385309, 10.4092841], [-75.5385546, 10.4092748], [-75.538576, 10.4092964], [-75.538582, 10.4093131], [-75.5386093, 10.4093343], [-75.5386398, 10.4094035], [-75.5386662, 10.409661], [-75.5387753, 10.4098889], [-75.5388318, 10.4099863], [-75.5389461, 10.410264], [-75.5389683, 10.4103095], [-75.5389905, 10.410355], [-75.5390328, 10.4104182], [-75.5390442, 10.4104368], [-75.539086, 10.4104215], [-75.5391905, 10.4105363], [-75.5390944, 10.4106206], [-75.5392301, 10.4107691], [-75.5393765, 10.4109312], [-75.5394975, 10.4110508], [-75.5396118, 10.4111705], [-75.5397335, 10.4112607], [-75.5398133, 10.4113141], [-75.53989, 10.4113409], [-75.5399053, 10.4113124], [-75.5400169, 10.4113639], [-75.5400261, 10.4113689], [-75.5400035, 10.4114099], [-75.5401181, 10.411466], [-75.5401834, 10.4114925], [-75.5402113, 10.4115065], [-75.5402318, 10.4114682], [-75.5403393, 10.4115179], [-75.5403656, 10.4115321], [-75.5403542, 10.4115893], [-75.5405792, 10.4117186], [-75.5406819, 10.4117522], [-75.5409048, 10.4118412], [-75.5410756, 10.4118889], [-75.5410867, 10.4118537], [-75.5411702, 10.4118762], [-75.5412094, 10.4118964], [-75.5412786, 10.4117929], [-75.5409795, 10.4115522], [-75.5410315, 10.411485], [-75.5410537, 10.4114975], [-75.5410219, 10.4115439], [-75.5413488, 10.4118096], [-75.541489, 10.4116447], [-75.5414407, 10.4116067], [-75.5415455, 10.4114752], [-75.5412782, 10.4112582], [-75.5413005, 10.4112338], [-75.5416088, 10.4114883], [-75.5418865, 10.4111435], [-75.5415556, 10.4108745], [-75.541515, 10.4109141], [-75.5414973, 10.4108967], [-75.5415994, 10.4107845], [-75.5416176, 10.4107991], [-75.5415829, 10.4108442], [-75.5419091, 10.4111208], [-75.5422458, 10.4107035], [-75.5419287, 10.4104249], [-75.5418865, 10.410464], [-75.5418675, 10.4104521], [-75.5419665, 10.4103459], [-75.5419831, 10.4103594], [-75.5419458, 10.410396], [-75.5428975, 10.4111963], [-75.5429284, 10.4111637], [-75.5429439, 10.4111749], [-75.5428595, 10.4112868], [-75.5428441, 10.4112703], [-75.5428782, 10.4112249], [-75.5422766, 10.4107217], [-75.5419319, 10.4111423], [-75.5422369, 10.411399], [-75.5422668, 10.4113567], [-75.5422854, 10.4113703], [-75.5422546, 10.4114134], [-75.5425376, 10.4116457], [-75.5425689, 10.4115972], [-75.5425952, 10.4116137], [-75.5425109, 10.4117354], [-75.5424862, 10.4117157], [-75.5425174, 10.4116723], [-75.5422362, 10.411439], [-75.5422033, 10.4114801], [-75.5421807, 10.4114638], [-75.5422132, 10.4114223], [-75.5419134, 10.4111666], [-75.54136, 10.4118576], [-75.5416097, 10.4120672], [-75.5418541, 10.4117736], [-75.5418265, 10.4117552], [-75.5418596, 10.4117091], [-75.542259, 10.4120029], [-75.5422919, 10.4119634], [-75.5423101, 10.411977], [-75.5422225, 10.4120884], [-75.5422032, 10.4120746], [-75.5422366, 10.4120325], [-75.5419227, 10.4117872], [-75.5416058, 10.4121507], [-75.5415821, 10.4121803], [-75.5416227, 10.412248], [-75.5416847, 10.4123016], [-75.5417293, 10.4123114], [-75.5417392, 10.4123479], [-75.5417814, 10.4123821], [-75.5418384, 10.4124649], [-75.5419301, 10.4125235], [-75.5420929, 10.412639], [-75.5421933, 10.4126833], [-75.5421841, 10.412707], [-75.5423245, 10.412812], [-75.5424739, 10.4128893], [-75.5425625, 10.4129736], [-75.542614, 10.4130009], [-75.542626, 10.4129899], [-75.5426873, 10.4130318], [-75.5427607, 10.4130883], [-75.5427456, 10.4131214], [-75.5428918, 10.4132314], [-75.5430611, 10.4133916], [-75.5433177, 10.4135551], [-75.5435783, 10.4137213], [-75.5436567, 10.41358], [-75.5445343, 10.41404], [-75.5446046, 10.41404], [-75.5445943, 10.4142945], [-75.5445017, 10.4142896], [-75.5444123, 10.4143399], [-75.5443989, 10.414317], [-75.544244, 10.4144452], [-75.5446299, 10.4148362], [-75.5446547, 10.4148074], [-75.5448348, 10.4149223], [-75.5456336, 10.4150292], [-75.5460256, 10.4150848], [-75.5460583, 10.414847], [-75.5460853, 10.4148534], [-75.546037, 10.4152234], [-75.5460102, 10.4152224], [-75.5460192, 10.4151188], [-75.5455955, 10.415061], [-75.5448329, 10.4149555], [-75.5448238, 10.4151007], [-75.5446035, 10.4150582], [-75.5445881, 10.4150344], [-75.5444509, 10.4148217], [-75.54426, 10.414734], [-75.5440542, 10.4145944], [-75.5438069, 10.4145509], [-75.5437623, 10.4145548], [-75.5437049, 10.4146554], [-75.5437939, 10.4147304], [-75.5437381, 10.4148538], [-75.5437376, 10.414903], [-75.5438763, 10.4151327], [-75.5443188, 10.4154441], [-75.545401, 10.4156018], [-75.5454125, 10.4155473], [-75.5454416, 10.4155511], [-75.5454189, 10.4156913], [-75.5453854, 10.4156859], [-75.5453977, 10.4156385], [-75.5443315, 10.4154778], [-75.5442626, 10.4154457], [-75.5442033, 10.4156426], [-75.5442581, 10.4156983], [-75.5442446, 10.4157737], [-75.5443302, 10.4158113], [-75.5442997, 10.4158686], [-75.5442029, 10.4158385], [-75.5442044, 10.4160088], [-75.5453126, 10.4161145], [-75.5453252, 10.4159991], [-75.5453521, 10.4160018], [-75.5453287, 10.4162424], [-75.5453045, 10.4162412], [-75.5453119, 10.4161414], [-75.5442033, 10.41604], [-75.5441908, 10.4162591], [-75.5441553, 10.4164178], [-75.5441991, 10.4166156], [-75.5441886, 10.4167859], [-75.5441265, 10.4169469], [-75.5440237, 10.4171044], [-75.5439725, 10.4171641], [-75.5437688, 10.4172893], [-75.5436058, 10.4173006], [-75.5434921, 10.4173066], [-75.5433516, 10.4173152], [-75.5432462, 10.417367], [-75.5431661, 10.4174222], [-75.5431033, 10.4174867], [-75.5425281, 10.4180179], [-75.5420518, 10.4184381], [-75.5419783, 10.4185047], [-75.5419201, 10.4185763], [-75.5417377, 10.4186916], [-75.541483, 10.4187736], [-75.5414584, 10.4188905], [-75.5414245, 10.4189793], [-75.5412974, 10.4190347], [-75.5412069, 10.4191119], [-75.5410058, 10.4195012], [-75.5409095, 10.419463], [-75.5407605, 10.4193863], [-75.5405507, 10.4193039], [-75.5398793, 10.4190017], [-75.5398343, 10.4188872], [-75.539689, 10.4188624], [-75.5397124, 10.4187452], [-75.5396806, 10.418667], [-75.5396278, 10.4185926], [-75.5395689, 10.4186711], [-75.5395053, 10.4187271], [-75.5394001, 10.4187196], [-75.539309, 10.4187025], [-75.5392269, 10.418706], [-75.5391758, 10.4187573], [-75.5390906, 10.418736], [-75.5390121, 10.4186864], [-75.5389169, 10.4186501], [-75.5387637, 10.4186878], [-75.5386682, 10.4186868], [-75.5385653, 10.418641], [-75.5385104, 10.4186124], [-75.5385051, 10.4185854], [-75.5385185, 10.4185584], [-75.5386487, 10.4184381], [-75.5386929, 10.4183541], [-75.5387122, 10.4183085], [-75.5387585, 10.4181617], [-75.5388531, 10.4180158], [-75.5387729, 10.4179328], [-75.5385184, 10.4178571], [-75.5384486, 10.4178321], [-75.5384472, 10.4177945], [-75.5384019, 10.4177639], [-75.5382983, 10.4177211], [-75.5382505, 10.4177319], [-75.5382491, 10.4177625], [-75.5382315, 10.4177775], [-75.5382089, 10.4177862], [-75.5381614, 10.4177945], [-75.5381128, 10.4178427], [-75.5380652, 10.4178307], [-75.5380114, 10.417821], [-75.537897, 10.4178513], [-75.53786, 10.417807], [-75.5377963, 10.4178168], [-75.5377035, 10.4177914], [-75.5376293, 10.4177457], [-75.5376112, 10.4176829], [-75.5375101, 10.417676], [-75.5373754, 10.4176582], [-75.5372836, 10.4176719], [-75.5371837, 10.4176585], [-75.5371382, 10.4176351], [-75.5370808, 10.4176393], [-75.5370461, 10.4176054], [-75.537005, 10.417581], [-75.5369697, 10.4175672], [-75.536943, 10.4175363], [-75.5369473, 10.4174904], [-75.5369857, 10.4174341], [-75.5369871, 10.4173486], [-75.5369185, 10.417323], [-75.5366909, 10.4173191], [-75.5365672, 10.4173623], [-75.5364195, 10.4174329], [-75.5361999, 10.4173937], [-75.5361401, 10.4172916], [-75.53616, 10.4171777], [-75.5361626, 10.4171112], [-75.536164, 10.4170128], [-75.5360425, 10.4170481], [-75.5359705, 10.4170393], [-75.5358154, 10.4170182], [-75.5357272, 10.4169637], [-75.5357249, 10.4169029], [-75.5356235, 10.4168735], [-75.5355293, 10.4168993], [-75.5354738, 10.4169285], [-75.5354237, 10.4169249], [-75.5353811, 10.4168958], [-75.53535, 10.4168609], [-75.5353068, 10.416847], [-75.5352595, 10.4168293], [-75.5352468, 10.4167872], [-75.5352178, 10.4167522], [-75.5351923, 10.416715], [-75.5352008, 10.4166715], [-75.5352379, 10.4166399], [-75.5351647, 10.416656], [-75.5351135, 10.4166465], [-75.535074, 10.416627], [-75.5350603, 10.4165963], [-75.5350802, 10.4165659], [-75.5350978, 10.4165304], [-75.5350463, 10.4165526], [-75.5350026, 10.4165451], [-75.5349425, 10.4165417], [-75.5348906, 10.416577], [-75.534803, 10.4165997], [-75.5347358, 10.4165996], [-75.5346959, 10.4165576], [-75.5346629, 10.4165361], [-75.5346471, 10.4165182], [-75.5345232, 10.4164514], [-75.5343916, 10.4162669], [-75.534204, 10.4161491], [-75.534063, 10.4160626], [-75.5338535, 10.4158951], [-75.5336092, 10.4157114], [-75.5334662, 10.4156186], [-75.5332957, 10.4154627], [-75.5332428, 10.4153941], [-75.5331267, 10.4152653], [-75.5327227, 10.4150392], [-75.5322851, 10.4146025], [-75.5321527, 10.4144976], [-75.531941, 10.4142904], [-75.5318115, 10.414196], [-75.5317533, 10.4141246], [-75.5316322, 10.4140096], [-75.5314416, 10.4138445], [-75.5313298, 10.4137306], [-75.5312819, 10.4136992], [-75.5312337, 10.4136464], [-75.5311872, 10.4135857], [-75.5311546, 10.4135506], [-75.5311235, 10.4135112], [-75.5310396, 10.4134976], [-75.5309611, 10.4134068], [-75.5309226, 10.4132233], [-75.5309172, 10.4131562], [-75.5308901, 10.4131194], [-75.5308705, 10.4130848], [-75.530866, 10.4130502], [-75.5308534, 10.4129413], [-75.5308506, 10.4128547], [-75.5308647, 10.4127897], [-75.5308807, 10.4127452], [-75.5309161, 10.4127059], [-75.5309764, 10.4126596], [-75.5310423, 10.4126229], [-75.5310552, 10.4125633], [-75.5310228, 10.4124854], [-75.5309547, 10.4121747], [-75.5309014, 10.4120969], [-75.5308496, 10.4120968], [-75.5307949, 10.4120517], [-75.5307755, 10.4119989], [-75.5307794, 10.4118788], [-75.5307832, 10.411775], [-75.5308163, 10.4117304], [-75.5308767, 10.4116938], [-75.5309132, 10.4116895], [-75.5309415, 10.4116869], [-75.5309536, 10.4116715], [-75.5309578, 10.4116588], [-75.5309541, 10.4116371], [-75.5309161, 10.411623], [-75.5308694, 10.4116369], [-75.530777, 10.4116525], [-75.5306689, 10.4116325], [-75.5305742, 10.4115948], [-75.5304706, 10.4115549], [-75.5304141, 10.4115203], [-75.5303755, 10.4114755], [-75.5303515, 10.4114267], [-75.5303683, 10.4113521], [-75.5304023, 10.4112926], [-75.5304383, 10.4112302], [-75.5304737, 10.4112028], [-75.5304994, 10.4112013], [-75.5305404, 10.4111567], [-75.5305722, 10.4111618], [-75.5305904, 10.4111408], [-75.530618, 10.4111612], [-75.5306385, 10.411133], [-75.5306237, 10.4109901], [-75.5305857, 10.4109281], [-75.5305769, 10.4107771], [-75.5305538, 10.4107889], [-75.5305044, 10.4107719], [-75.5304633, 10.4107209], [-75.5304263, 10.4106942], [-75.5303975, 10.4106667], [-75.5303358, 10.4106125], [-75.5302889, 10.4105704], [-75.530279, 10.4105445], [-75.5302765, 10.4105081], [-75.5302847, 10.4104903], [-75.5303284, 10.4104304], [-75.5303514, 10.4104191], [-75.5303869, 10.4104262], [-75.5303221, 10.4103606], [-75.5302862, 10.4103018], [-75.5302782, 10.4101879], [-75.5302343, 10.4101706], [-75.5301567, 10.4102057], [-75.5300082, 10.4103309], [-75.5299198, 10.4103859]]]}}