{"type": "FeatureCollection", "crs": {"type": "name", "properties": {"name": "EPSG:4326"}}, "features": [{"type": "Feature", "id": 170, "geometry": {"type": "Polygon", "coordinates": [[[-75.5396919706192, 10.418655387947], [-75.5396241387735, 10.4186352500019], [-75.5395223973864, 10.418675546969], [-75.5395224004174, 10.4187091202603], [-75.5394206574831, 10.4187326305494], [-75.5393765655464, 10.4187057758], [-75.5392883871065, 10.4187124982071], [-75.5392069928651, 10.4187326493132], [-75.5391595157286, 10.4187762987421], [-75.5391154238081, 10.4187494439568], [-75.5390679418846, 10.4187393761062], [-75.5390136751744, 10.4187091648631], [-75.5389390639197, 10.4187293153117], [-75.5388330351738, 10.4187301649523], [-75.538705173964, 10.4186985351648], [-75.5385938569958, 10.4185538931232], [-75.5386166835135, 10.4184928661361], [-75.5388016050345, 10.418317685563], [-75.5388215750993, 10.4182204967773], [-75.5388267108242, 10.4182012839993], [-75.5388843550373, 10.4181436451976], [-75.5388997666776, 10.418133472254], [-75.5389887999437, 10.4180227163875], [-75.5389750985553, 10.4179967248427], [-75.5386100391611, 10.4178700195171], [-75.5383686520939, 10.4178134465114], [-75.5379199852008, 10.4177755717423], [-75.5378768703854, 10.417771930138], [-75.5377023761295, 10.4176718051592], [-75.5374666267841, 10.4175934356347], [-75.5371611881394, 10.4175980388849], [-75.5369929654304, 10.4175340051342], [-75.5370303521863, 10.4174273219903], [-75.5370229310606, 10.4174047207766], [-75.5370098004868, 10.4173877712716], [-75.5369167529839, 10.4172917202601], [-75.5365270669832, 10.4173866159028], [-75.5363020136548, 10.4173618353872], [-75.5362432179464, 10.4173132460219], [-75.5362477819531, 10.4172838634532], [-75.5361889742977, 10.4170849720956], [-75.5359611038723, 10.4169430224064], [-75.5357929140351, 10.4168551433233], [-75.5356834982495, 10.4168822307247], [-75.5355467258645, 10.4168822411536], [-75.5351455020706, 10.4165573232071], [-75.5350269579014, 10.4164490159809], [-75.5349357784851, 10.4164761017698], [-75.5348901918375, 10.4165302631803], [-75.5347807740516, 10.4165302712565], [-75.5346713515396, 10.416467094922], [-75.5345619230238, 10.4163226814975], [-75.5344433818186, 10.4162504794098], [-75.5342245358449, 10.4161060737909], [-75.5340786344733, 10.415952636478], [-75.5339874485644, 10.4158894586034], [-75.5338780218694, 10.4157630976178], [-75.5336818200492, 10.4157480681368], [-75.5335281675948, 10.4157589436364], [-75.5334020419792, 10.4157153294703], [-75.5332338053052, 10.4154271279857], [-75.5331496877562, 10.4152926343117], [-75.5325191791352, 10.414687183861], [-75.532290288958, 10.4146318255039], [-75.5322210473312, 10.4145756056394], [-75.5321897243252, 10.4145501733086], [-75.5321473703658, 10.4145157846419], [-75.531958637823, 10.4142736084397], [-75.5319175376938, 10.4142227570836], [-75.5317989817662, 10.4141294705291], [-75.5316986746419, 10.4140031081953], [-75.531415996859, 10.4137323359381], [-75.5312883387121, 10.4136511069017], [-75.5311059642396, 10.413443512445], [-75.5310330146322, 10.4133622799005], [-75.5310512399009, 10.4131907782902], [-75.5308357387027, 10.4117603551896], [-75.5309173609055, 10.4117660022953], [-75.5309818571843, 10.4117253150412], [-75.5310235171641, 10.4116111724729], [-75.5308745075346, 10.4110529173829], [-75.5307985958008, 10.4110924744286], [-75.530889945487, 10.4114823510506], [-75.5308631229554, 10.4115467672384], [-75.5307158644768, 10.4115953708096], [-75.5304778424172, 10.4115230593914], [-75.5303927890177, 10.4114111848296], [-75.5306912887242, 10.4110913518238], [-75.5306107958532, 10.4108766392537], [-75.5306433237948, 10.4107839699536], [-75.5308995972312, 10.4106562532057], [-75.5309287067162, 10.4106517310501], [-75.5310628447384, 10.4107070971559], [-75.5310776855582, 10.4107251776936], [-75.5311130779284, 10.4107760295245], [-75.5311284932297, 10.4108528756304], [-75.5311090970178, 10.4110201303216], [-75.5313031921162, 10.4114710246206], [-75.5312506995265, 10.4117784118125], [-75.5312980833876, 10.4119128906188], [-75.5316485364312, 10.4117817770118], [-75.5316639400494, 10.4116676366145], [-75.5316057002009, 10.4113625167522], [-75.5316713275587, 10.4111647456845], [-75.5320047561485, 10.4110090925993], [-75.5319966523797, 10.4108426479715], [-75.5320426559592, 10.4106980591005], [-75.5318961593192, 10.410305862852], [-75.531860198128, 10.4102764829474], [-75.5318185303178, 10.4102640545563], [-75.5316969571286, 10.4103149163864], [-75.5316632813619, 10.4103183088847], [-75.5315108770855, 10.4102335616724], [-75.5313293730243, 10.4102979882504], [-75.5312688826292, 10.4104957580691], [-75.5305614643562, 10.4107262239251], [-75.5303611145412, 10.4104871853329], [-75.5302746789425, 10.4100309796408], [-75.5300874655577, 10.4100880170876], [-75.5298426545274, 10.4102733670833], [-75.529799459058, 10.4104159354836], [-75.5301501802109, 10.4109862858839], [-75.5301701672045, 10.4111422371302], [-75.5299789838519, 10.4116259273804], [-75.5300880311093, 10.4120836077765], [-75.5299795897489, 10.4122135746933], [-75.5299327856733, 10.412216967779], [-75.5293500003926, 10.4119762920056], [-75.5291861849622, 10.4119559594605], [-75.5291519367856, 10.4119491789546], [-75.5288731502738, 10.4119227104243], [-75.5287276005443, 10.4119272387844], [-75.5286927825791, 10.4119249805053], [-75.5279133289296, 10.4118362380134], [-75.527534895103, 10.4117605404886], [-75.5272934476046, 10.411646414448], [-75.5266478572588, 10.4109604817126], [-75.5265890602158, 10.4108237427175], [-75.5274052342359, 10.4099467505692], [-75.5271443817025, 10.4098495776905], [-75.5270005362985, 10.4096732905845], [-75.5269874069549, 10.409646169042], [-75.5268235807153, 10.4093986861489], [-75.5268110218608, 10.4093659150548], [-75.5268047421033, 10.4093399231895], [-75.5268526781783, 10.4091365035569], [-75.5266380417093, 10.4086584864391], [-75.5267938438069, 10.4082663371374], [-75.5266648369586, 10.4080391942335], [-75.5266762494191, 10.4079736491077], [-75.5271887924843, 10.4076854505805], [-75.5270421003275, 10.4076334738061], [-75.526571209627, 10.4076301063879], [-75.526296088916, 10.4075001588823], [-75.5261242700508, 10.407175830914], [-75.5261516626011, 10.4070775116122], [-75.5261545152196, 10.407054907915], [-75.5260643244771, 10.406876359256], [-75.5257087246268, 10.4067260734592], [-75.5256830303256, 10.4065237881791], [-75.5256990075663, 10.4064243394083], [-75.5253633711177, 10.4059576267029], [-75.5253724991082, 10.4058604377071], [-75.5253736398679, 10.4058446162309], [-75.5253953272292, 10.4057982815918], [-75.5254364208967, 10.4057542069963], [-75.5257628845203, 10.4053507479946], [-75.5263196715453, 10.4053592809753], [-75.5263378625754, 10.4052584054623], [-75.5262832742306, 10.4052439973702], [-75.5262869113314, 10.405200765204], [-75.5264761491944, 10.4052151669079], [-75.5264725126448, 10.4052692070749], [-75.5264252040422, 10.4052836199901], [-75.5264288463625, 10.4053484678093], [-75.526887382059, 10.405334035035], [-75.5271275637714, 10.4052547645353], [-75.5272403771489, 10.4052331429132], [-75.5273095142995, 10.4050926354627], [-75.5273677201502, 10.4046855312392], [-75.5273640748639, 10.4045666434328], [-75.5289798739738, 10.4047106645496], [-75.5290017108338, 10.4047430873347], [-75.5300898307114, 10.4048727210526], [-75.5307266914652, 10.4049627495496], [-75.5307703559351, 10.4048726802308], [-75.5312252556882, 10.4049230894648], [-75.5322150070934, 10.4033738795632], [-75.53253183078, 10.4035463419226], [-75.5325716614275, 10.403626042644], [-75.531771131856, 10.4049266575667], [-75.5324677939887, 10.4049975968195], [-75.5328811240639, 10.4050615195919], [-75.533867193291, 10.403510668337], [-75.5341838130792, 10.4036907791181], [-75.5342238480471, 10.4037484189084], [-75.5333651028016, 10.4051138899568], [-75.5337468105091, 10.4051700663998], [-75.5338170305811, 10.4049411461206], [-75.5342778697259, 10.4050123962416], [-75.5354587612806, 10.4050693354221], [-75.5356603861862, 10.4051976294379], [-75.535743674859, 10.405353060535], [-75.5359916288259, 10.4054257094767], [-75.5360348185459, 10.4052546270186], [-75.536265236864, 10.4052688656763], [-75.5366252637243, 10.405268837321], [-75.5370321734747, 10.4053585592475], [-75.53727331562, 10.4053115550403], [-75.5374893377295, 10.4053828203593], [-75.5376477604069, 10.4055111166603], [-75.5376781791061, 10.4056101553103], [-75.5380510066392, 10.4056964188353], [-75.5382556444404, 10.4056958566647], [-75.5382670672721, 10.4062096379785], [-75.5383678923571, 10.4064092217328], [-75.5383535060203, 10.4065803020515], [-75.5385551343173, 10.4067228508199], [-75.5386415660744, 10.4070079752562], [-75.5384843352986, 10.4070046694723], [-75.5384311152077, 10.4070411509878], [-75.5383246707886, 10.4070654780074], [-75.5381815938369, 10.4071896173807], [-75.5380237705655, 10.4072519412767], [-75.5379521236488, 10.4072499207662], [-75.5379050449492, 10.40729045468], [-75.5378227042996, 10.4075061616978], [-75.5377314632211, 10.4075313950128], [-75.537677825992, 10.40754516608], [-75.5376023359136, 10.4075569722777], [-75.5375566447735, 10.4075668093466], [-75.5374542002235, 10.4075887154843], [-75.537423950798, 10.4075966286726], [-75.5373971243392, 10.407607932503], [-75.5374117341228, 10.4076289207997], [-75.5374199241931, 10.4076512116224], [-75.5375795901983, 10.4076025625351], [-75.5376976206136, 10.4078968089856], [-75.5374473981609, 10.408030217793], [-75.5374859004391, 10.4080873810145], [-75.5377746268547, 10.4080301908236], [-75.5378227632599, 10.4082016859595], [-75.5379604433535, 10.4081364785251], [-75.538466890402, 10.408072770203], [-75.5387241605144, 10.4083512853327], [-75.5385875395646, 10.4088208310372], [-75.538587559693, 10.4090516189281], [-75.5391323210728, 10.4103477118222], [-75.5392157648632, 10.410507380774], [-75.5394327020837, 10.4107331108905], [-75.5395328355454, 10.4109313208228], [-75.5398276460813, 10.4112121045366], [-75.5400946309792, 10.4113166960267], [-75.5402169992651, 10.4113662396572], [-75.5404283691433, 10.4115203905909], [-75.5409512212695, 10.4117846341383], [-75.5412181975496, 10.411790115308], [-75.5414628823337, 10.4113441000754], [-75.5416130645183, 10.41143218308], [-75.5419022529237, 10.4110742605053], [-75.5423750503914, 10.4113660369111], [-75.542280514595, 10.4115477466271], [-75.541952326405, 10.4112339319291], [-75.5414073159744, 10.4119002190615], [-75.5415408156077, 10.4120213401282], [-75.5418355666293, 10.4116634170981], [-75.5419356846539, 10.4116854318139], [-75.5419857506909, 10.411768018155], [-75.5419468221221, 10.4118230826596], [-75.5416409460066, 10.4121699946931], [-75.5418856966858, 10.412401226549], [-75.542225002437, 10.4126379551451], [-75.5425643075993, 10.4128636712245], [-75.5427090084357, 10.4129952762643], [-75.5427701209428, 10.4130508575929], [-75.5427701264808, 10.4131059183532], [-75.5429036243719, 10.4131995084597], [-75.5435099315778, 10.4136564521724], [-75.5435599790429, 10.4135518316782], [-75.5436656575379, 10.4135518209832], [-75.5446724412081, 10.4140858066909], [-75.5446335321819, 10.4143225720061], [-75.5444889226549, 10.4143556235237], [-75.5444221840005, 10.4144106912095], [-75.5443943761238, 10.4144327183953], [-75.5447003183881, 10.4147134963866], [-75.5447985927679, 10.4149110182735], [-75.5448505107674, 10.4148731568259], [-75.5448522585994, 10.4149188794499], [-75.544885925168, 10.4149234419048], [-75.5449247385686, 10.4149302182192], [-75.5449584164107, 10.4149347341656], [-75.5449903811178, 10.4149392520252], [-75.5450183504321, 10.4149426394171], [-75.5450428937667, 10.4149460254329], [-75.5451222350093, 10.4149607090129], [-75.5451547717181, 10.4149686171398], [-75.5451776012264, 10.4149494023807], [-75.5452078496178, 10.4149245378974], [-75.5452152725649, 10.4149482689416], [-75.5452124215689, 10.4149765208613], [-75.5452072878045, 10.4150070345066], [-75.5451992997354, 10.4150352869715], [-75.5451930226258, 10.4150488487263], [-75.5451627710209, 10.4150522428593], [-75.5451576310138, 10.4150251212274], [-75.5451330858172, 10.4150126921806], [-75.5451171033127, 10.4150104335477], [-75.5450811430317, 10.4150059178595], [-75.545030912922, 10.4150002727888], [-75.5450109350245, 10.4149968845543], [-75.5449698375536, 10.4149912385096], [-75.5449218914592, 10.4149867223314], [-75.5448962051053, 10.4149855950169], [-75.5448546724269, 10.4149820242364], [-75.5448616661685, 10.415164977645], [-75.5446503092682, 10.4151760119433], [-75.5443499239931, 10.4148511847352], [-75.5438215024324, 10.4145924534529], [-75.5437770123636, 10.4146530248123], [-75.5438437643559, 10.4147245969961], [-75.5437881604686, 10.414884278847], [-75.5439494846165, 10.4151210236302], [-75.5443202042159, 10.4153942387653], [-75.5453845436831, 10.4155723718158], [-75.5454790975302, 10.4155613495576], [-75.545495791538, 10.415632926746], [-75.5454457425868, 10.4157210293034], [-75.5443110622695, 10.4155394481655], [-75.5442832676366, 10.415688115067], [-75.5442943964099, 10.4157321625178], [-75.5443833964316, 10.4157982262081], [-75.544377838441, 10.4158367693094], [-75.5442944068625, 10.4158312718681], [-75.5443500304351, 10.4158587964897], [-75.5443444741841, 10.4159138578153], [-75.544266603493, 10.4158973476411], [-75.544439041003, 10.4160239695128], [-75.5444223612061, 10.4160845380686], [-75.5442888645369, 10.4160184789919], [-75.5442666220602, 10.4160735420395], [-75.5442499532462, 10.416238726009], [-75.5441832234106, 10.4163818908372], [-75.5443167149825, 10.4163983952829], [-75.5443222851961, 10.4164754797547], [-75.5442332925303, 10.4164809950231], [-75.5442444450998, 10.4167507915372], [-75.5441498948974, 10.4168003559541], [-75.5441276783441, 10.4171031923473], [-75.5438217857765, 10.4173179605703], [-75.5435659312109, 10.4173345047611], [-75.5433722686283, 10.4173540950944], [-75.5431717214228, 10.417546257216], [-75.5420551573993, 10.4184710808289], [-75.541823430883, 10.4186519184259], [-75.5417607921126, 10.4187156290596], [-75.5415607016402, 10.4187995813256], [-75.5414759225014, 10.4188868799104], [-75.5414454051203, 10.4189506720471], [-75.5413809697711, 10.418984251419], [-75.5412487194251, 10.4191756316144], [-75.5411707308114, 10.4193435053749], [-75.5410961253053, 10.4194240882463], [-75.5409333331772, 10.4194274607376], [-75.5408417633768, 10.4194375412168], [-75.5407671479537, 10.4194140468147], [-75.5407332274883, 10.4193569753535], [-75.5406348727943, 10.4193469124255], [-75.5405500806847, 10.4192999176052], [-75.5404245880086, 10.4192260678484], [-75.5403296217548, 10.4191824312268], [-75.5401396905652, 10.4191085872147], [-75.539936191599, 10.419014600333], [-75.5398242633596, 10.4189206051464], [-75.5397055537068, 10.4188433971694], [-75.5397157230281, 10.4187863216687], [-75.5397157141781, 10.4186889591245], [-75.5396919706192, 10.418655387947]]]}, "properties": {"FID": 170, "CODIGO": "1700", "NOMBRE": "MANGA", "UCG": 1, "LOC": "LH", "ZONA": "UCG 1", "Shape__Area": 1893225.52734375, "Shape__Length": 10262.738683074167}}]}